[Satellite]
VERSION=1.1
NAME=MIDORI II (ADEOS-II)
NICKNAME=MIDORI II (ADEOS-II)
TLE1=1 27597U 02056A   20157.83103487  .00000016  00000-0  23789-4 0  9992
TLE2=2 27597  98.5195 105.7094 0001912  57.9380 302.1987 14.27448041910151
STATUS=0
